STARLINK-5517           
1 57249U 23094AH  25282.56245016  .00000409  00000+0  45356-4 0  9992
2 57249  43.0035 118.6935 0001358 266.0642  94.0045 15.02535997124533
STARLINK-5488           
1 57250U 23094AJ  25282.61895999  .00001751  00000+0  14464-3 0  9997
2 57250  43.0036 118.3152 0001264 257.7671 102.3030 15.02534471124543
STARLINK-5513           
1 57251U 23094AK  25282.62561094 -.00000673  00000+0 -34751-4 0  9991
2 57251  43.0040 118.3658 0001252 265.2371  94.8328 15.02529456124540
STARLINK-5511           
1 57252U 23094AL  25282.54470097  .00001092  00000+0  95887-4 0  9996
2 57252  43.0033 118.6172 0001693 260.9429  99.1222 15.02533524124533
STARLINK-5516           
1 57253U 23094AM  25282.69097532 -.00000079  00000+0  91909-5 0  9999
2 57253  43.0026 117.9951 0001156 268.6963  91.3747 15.02533778124554
STARLINK-5490           
1 57254U 23094AN  25282.60562615  .00000341  00000+0  40326-4 0  9997
2 57254  43.0028 118.2143 0001455 267.6729  92.3947 15.02538712124540
STARLINK-5481           
1 57255U 23094AP  25282.60784828  .00000303  00000+0  37536-4 0  9997
2 57255  43.0032 118.2315 0001183 272.4180  87.6527 15.02533054124545
STARLINK-5512           
1 57256U 23094AQ  25282.25548058  .00000087  00000+0  21493-4 0  9996
2 57256  43.0031 119.9064 0001306 266.6119  93.4574 15.02538154124495
STARLINK-5503           
1 57257U 23094AR  25282.61450774  .00000789  00000+0  73474-4 0  9999
2 57257  43.0029 118.2817 0001240 265.9888  94.0812 15.02534765125209
STARLINK-5476           
1 57258U 23094AS  25282.53581984  .00000398  00000+0  44517-4 0  9991
2 57258  43.0034 118.5514 0001180 268.8582  91.2125 15.02534383124536
STARLINK-5026           
1 57260U 23094AU  25282.59564128 -.00000003  00000+0  14836-4 0  9996
2 57260  43.0034 118.1384 0001209 265.3742  94.6962 15.02532816125189
STARLINK-5485           
1 57261U 23094AV  25282.59534881  .00003587  00000+0  28027-3 0  9995
2 57261  43.0077 131.1434 0002199 258.9133 101.1462 15.02563602124397
STARLINK-5504           
1 57262U 23094AW  25282.60452590  .00001727  00000+0  14288-3 0  9992
2 57262  43.0027 118.2065 0001319 269.0902  90.9789 15.02534404124541
STARLINK-5509           
1 57263U 23094AX  25281.99597631 -.00001035  00000+0 -61540-4 0  9998
2 57263  43.0035 134.3869 0001211 270.6406  89.4297 15.02530399124300
STARLINK-5858           
1 57264U 23094AY  25282.59119875  .00000879  00000+0  80108-4 0  9990
2 57264  43.0028 118.1053 0001223 267.5159  92.5543 15.02533716124542
STARLINK-5890           
1 57265U 23094AZ  25282.58898039 -.00000352  00000+0 -11020-4 0  9991
2 57265  43.0023 118.0908 0000978 270.6489  89.4241 15.02535206124549
STARLINK-30198          
1 57290U 23096A   25282.45725017 -.00002922  00000+0 -20136-3 0  9994
2 57290  43.0031 325.3049 0001063 266.5518  93.5203 15.02533758124867
STARLINK-30239          
1 57291U 23096B   25282.38743231 -.00000487  00000+0 -20961-4 0  9996
2 57291  43.0030 325.6388 0001451 274.4675  85.6001 15.02530139124856
STARLINK-30210          
1 57292U 23096C   25282.38094929  .00075267  00000+0  29308-2 0  9998
2 57292  42.9930 307.7464 0023785  64.5228 295.8079 15.24817380124946
STARLINK-30235          
1 57294U 23096E   25282.17800870 -.00005671  00000+0 -40488-3 0  9994
2 57294  43.0002 326.6477 0001420 283.1293  76.9390 15.02554500124826
STARLINK-30238          
1 57296U 23096G   25282.13865981  .00095544  00000+0  37058-2 0  9990
2 57296  42.9956 308.5276 0021344  64.3298 295.9754 15.24885365125054
STARLINK-30234          
1 57297U 23096H   25282.42947723  .00744625  00000+0  61280-2 0  9993
2 57297  42.9825 271.3016 0031705 118.1298 242.2778 15.66806086125497
STARLINK-30241          
1 57298U 23096J   25282.34578464  .00089101  00000+0  31238-2 0  9998
2 57298  42.9927 303.1928 0022329  73.8002 286.5305 15.28228401125112
STARLINK-30236          
1 57300U 23096L   25282.43060102 -.00000765  00000+0 -41540-4 0  9997
2 57300  43.0030 325.0995 0001044 279.9300  80.1425 15.02535172124906
STARLINK-30201          
1 57301U 23096M   25282.42727485 -.00001212  00000+0 -74648-4 0  9994
2 57301  43.0035 325.0779 0001224 273.8477  86.2226 15.02531549123965
STARLINK-30233          
1 57302U 23096N   25282.42394604 -.00002937  00000+0 -20254-3 0  9996
2 57302  43.0035 325.0294 0002228 272.9020  87.1568 15.02516746123968
STARLINK-30232          
1 57303U 23096P   25282.35221986  .00074840  00000+0  29411-2 0  9994
2 57303  42.9960 307.5491 0020723  67.2268 293.0769 15.24577190124929
STARLINK-30177          
1 57305U 23096R   25282.35337834  .00079603  00000+0  30566-2 0  9991
2 57305  42.9964 306.6913 0021250  65.6649 294.6417 15.25310236124176
STARLINK-30200          
1 57306U 23096S   25282.43194720  .00087141  00000+0  30917-2 0  9992
2 57306  42.9905 303.0021 0022358  74.7591 285.5730 15.27849719124228
STARLINK-30209          
1 57307U 23096T   25282.44201219  .00078255  00000+0  30262-2 0  9995
2 57307  42.9940 306.4806 0021503  69.3363 290.9791 15.25076814124182
STARLINK-30163          
1 57309U 23096V   25282.27645168  .00037646  00000+0  79844-3 0  9992
2 57309  42.9939 284.7703 0028630  94.1542 266.2588 15.43967979124416
STARLINK-30184          
1 57310U 23096W   25282.34800941 -.00000987  00000+0 -58025-4 0  9993
2 57310  43.0040 299.4805 0000905 270.6350  89.4389 15.02535963124257
STARLINK-30175          
1 57311U 23096X   25282.45536330  .00076814  00000+0  30062-2 0  9993
2 57311  42.9937 306.5939 0021665  66.4981 293.8143 15.24685060124185
STARLINK-6290           
1 57328U 23099A   25282.19299667 -.00000276  00000+0 -53237-5 0  9997
2 57328  43.0069 352.5038 0001481 268.3806  91.6867 15.02533593124237
STARLINK-6138           
1 57329U 23099B   25282.24949059 -.00001491  00000+0 -95321-4 0  9990
2 57329  43.0047 352.0625 0000833 262.5445  97.5303 15.02534806123334
STARLINK-6212           
1 57330U 23099C   25282.58853576  .00001480  00000+0  12462-3 0  9997
2 57330  43.0062 350.3111 0001427 270.7630  89.3049 15.02530431123382
STARLINK-6234           
1 57331U 23099D   25282.25503738 -.00000050  00000+0  11391-4 0  9998
2 57331  43.0051 352.1075 0001275 267.4604  92.6093 15.02534186123337
STARLINK-5831           
1 57332U 23099E   25282.51873050 -.00001274  00000+0 -79258-4 0  9991
2 57332  43.0037 350.6425 0001043 268.4585  91.6138 15.02529694123377
STARLINK-5585           
1 57333U 23099F   25282.51761899 -.00000690  00000+0 -36030-4 0  9991
2 57333  43.0053 350.6365 0001273 275.5861  84.4836 15.02532809123377
STARLINK-5589           
1 57334U 23099G   25282.51206939 -.00000887  00000+0 -50584-4 0  9999
2 57334  43.0039 350.5922 0001233 274.9790  85.0912 15.02531056123375
STARLINK-6316           
1 57335U 23099H   25282.56744729 -.00000631  00000+0 -31665-4 0  9995
2 57335  43.0053 350.1528 0001253 265.5802  94.4897 15.02533412123387
STARLINK-6320           
1 57336U 23099J   25282.47100166 -.00000266  00000+0 -46229-5 0  9994
2 57336  43.0038 350.2701 0001151 268.8044  91.2667 15.02525257123373
STARLINK-6322           
1 57337U 23099K   25282.24282919 -.00000124  00000+0  59383-5 0  9994
2 57337  43.0064 352.0128 0001465 273.0415  87.0259 15.02533052123332
STARLINK-6374           
1 57338U 23099L   25282.50429792  .00000352  00000+0  41104-4 0  9999
2 57338  43.0046 350.5322 0001399 269.2172  90.8510 15.02534121123379
STARLINK-6332           
1 57339U 23099M   25282.57743806 -.00000519  00000+0 -23384-4 0  9999
2 57339  43.0057 350.2228 0001122 273.3296  86.7418 15.02531279123384
STARLINK-6321           
1 57340U 23099N   25282.55856593  .00000040  00000+0  18064-4 0  9993
2 57340  43.0046 350.0808 0001093 280.5682  79.5037 15.02532938123382
STARLINK-6377           
1 57341U 23099P   25282.49763941 -.00000629  00000+0 -31456-4 0  9996
2 57341  43.0061 350.4846 0001331 273.3511  86.7179 15.02533924123374
STARLINK-6375           
1 57342U 23099Q   25282.54191808 -.00000708  00000+0 -37350-4 0  9997
2 57342  43.0051 349.9541 0001307 265.8395  94.2298 15.02533043123387
STARLINK-6379           
1 57343U 23099R   25282.56078595 -.00000365  00000+0 -11943-4 0  9996
2 57343  43.0054 350.0965 0001251 261.9476  98.1225 15.02534309123388
STARLINK-6380           
1 57344U 23099S   25282.48543156 -.00001447  00000+0 -92093-4 0  9995
2 57344  43.0041 350.3903 0001105 269.8925  90.1790 15.02532284123372
STARLINK-6373           
1 57345U 23099T   25282.22285008  .00001625  00000+0  13533-3 0  9994
2 57345  43.0058 351.8618 0001326 259.1909 100.8785 15.02537873123337
STARLINK-6359           
1 57346U 23099U   25282.46878072 -.00000892  00000+0 -50995-4 0  9991
2 57346  43.0035 350.2623 0001055 262.4235  97.6488 15.02531861123378
STARLINK-6378           
1 57347U 23099V   25282.54747071  .00000133  00000+0  24915-4 0  9994
2 57347  43.0037 349.9956 0000848 260.5725  99.5022 15.02531906123383
STARLINK-6372           
1 57348U 23099W   25282.46323022 -.00000900  00000+0 -51580-4 0  9994
2 57348  43.0058 350.2242 0001572 264.3798  95.6865 15.02537203123374
STARLINK-6376           
1 57349U 23099X   25282.46544954 -.00000463  00000+0 -19186-4 0  9994
2 57349  43.0048 350.2425 0001220 261.2891  98.7813 15.02532294124099
STARLINK-6362           
1 57350U 23099Y   25282.47135602 -.00000115  00000+0  65244-5 0  9993
2 57350  43.0030 338.1214 0000197 189.4407 170.6431 15.02548712123513
STARLINK-6331           
1 57351U 23099Z   25282.46212169 -.00000739  00000+0 -39623-4 0  9991
2 57351  43.0079 350.2172 0001440 265.7584  94.3094 15.02530989123379
STARLINK-6297           
1 57352U 23099AA  25282.46471435 -.00000001  00000+0  14978-4 0  9992
2 57352  43.0060 338.0695 0001605 265.9467  94.1192 15.02530970123512
STARLINK-6324           
1 57353U 23099AB  25281.92807264 -.00003947  00000+0 -27714-3 0  9990
2 57353  43.0066 353.0895 0001467 264.7860  95.2815 15.02552130123299
